HST                     
1 20580U 90037B   26179.87800082  .00006406  00000+0  20097-3 0  9998
2 20580  28.4733   0.6674 0001411 286.0347  74.0094 15.30881351790368
POLAR                   
1 23802U 96013A   26179.59050762  .00000183  00000+0  00000+0 0  9993
2 23802  79.8685 226.9180 6481807 208.6879  90.5765  1.29846071145002
SWAS                    
1 25560U 98071A   26179.54481539  .00002065  00000+0  13441-3 0  9995
2 25560  69.8940 198.2284 0008688 248.6189 111.4048 15.09676726498984
CXO                     
1 25867U 99040B   26182.60009460  .00000698  00000+0  00000+0 0  9995
2 25867  56.3386 116.3110 7812274 310.0948   0.4515  0.37794011 17375
XMM-NEWTON              
1 25989U 99066A   26181.31376484  .00000075  00000+0  00000+0 0  9997
2 25989  64.4187 282.8185 4670815  64.6474   0.0796  0.50127122 23075
TERRA                   
1 25994U 99068A   26179.94125439  .00000368  00000+0  83955-4 0  9993
2 25994  97.9451 229.0212 0002489 156.9544 305.3307 14.61111903411320
CLUSTER II-FM7 (SAMBA)  
1 26410U 00041A   26181.52661441  .00015728  00000+0  00000+0 0  9996
2 26410 149.8901  53.0517 9069081 270.4354 359.5654  0.44858661 20366
CLUSTER II-FM8 (TANGO)  
1 26464U 00045B   26177.44528680  .00007604  00000+0  00000+0 0  9996
2 26464 150.1217  53.5221 9068133 270.7042   2.5410  0.44425767 20352
ODIN                    
1 26702U 01007A   26179.63720620  .00214973  00000+0  11239-2 0  9999
2 26702  97.3796 221.3471 0006204 134.8757 225.3015 15.80233785391202
TIMED                   
1 26998U 01055B   26179.51574818  .00000904  00000+0  85601-4 0  9995
2 26998  74.0664 212.2084 0001686 320.2046  39.9015 14.95314068332512
CORIOLIS                
1 27640U 03001A   26179.96483678  .00000093  00000+0  64232-4 0  9991
2 27640  98.7126 186.6698 0014074 174.2000 185.9342 14.19947853215896
SORCE                   
1 27651U 03004A   26179.76176994  .00002159  00000+0  16500-3 0  9993
2 27651  39.9887 195.6373 0016539 138.4929 221.7124 15.03763652273640
MOST                    
1 27843U 03031D   26179.96753789  .00000060  00000+0  47614-4 0  9991
2 27843  98.7043 187.5290 0009162 212.8254 147.2355 14.21324741192380
SCISAT 1                
1 27858U 03036A   26179.90822238  .00000580  00000+0  78676-4 0  9991
2 27858  73.9292 148.0547 0008140 217.9698 142.0905 14.81460337233183
SWIFT                   
1 28485U 04047A   26179.95001548  .00052692  00000+0  41815-3 0  9994
2 28485  20.5525  94.0876 0001184 104.6769 255.3808 15.69450660188717
HINODE (SOLAR-B)        
1 29479U 06041A   26179.97213271  .00000680  00000+0  12516-3 0  9990
2 29479  98.0544 195.9509 0016043 248.9393 111.0097 14.68638219 56607
SHIJIAN-6 02A (SJ-6 02A)
1 29505U 06046A   26179.96461352  .00004244  00000+0  21777-3 0  9998
2 29505  97.6359 221.1188 0004863  98.5536 261.6248 15.17073569 74051
SHIJIAN-6 02B (SJ-6 02B)
1 29506U 06046B   26180.00945845  .00000936  00000+0  77124-4 0  9992
2 29506  97.7156 208.9950 0015159  27.0584 333.1427 15.01404059 72516
FGRST (GLAST)           
1 33053U 08029A   26179.94904604  .00002754  00000+0  96926-4 0  9997
2 33053  25.5815 122.8065 0008530 104.7631 255.3853 15.23995466997639
SDO                     
1 36395U 10005A   26179.25530826 -.00000095  00000+0  00000+0 0  9991
2 36395  34.6736  86.1745 0001515  48.6117 131.2733  1.00270682 60177
CRYOSAT 2               
1 36508U 10013A   26179.93576451  .00000094  00000+0  22502-4 0  9999
2 36508  92.0361 280.1575 0002146  95.5196 264.6256 14.51902619859787
X-SAT                   
1 37389U 11015C   26179.94980495 -.00000055  00000+0 -59591-5 0  9996
2 37389  98.3509 156.4130 0013174 312.8670  47.1403 14.25209263789354
GCOM-W1 (SHIZUKU)       
1 38337U 12025A   26179.84412291  .00000429  00000+0  10525-3 0  9990
2 38337  98.2023 120.2234 0001617  69.4507 353.3828 14.57134781750735
NUSTAR                  
1 38358U 12031A   26179.91668981  .00018838  00000+0  11026-2 0  9996
2 38358   6.0284 306.1628 0009099 279.8350 336.0177 15.08907932  1301
NEOSSAT                 
1 39089U 13009D   26179.91683955  .00000130  00000+0  59713-4 0  9995
2 39089  98.4181 359.6708 0010426 205.8598 154.2068 14.35830334698429
BRITE-AUSTRIA           
1 39091U 13009F   26179.77032627  .00000164  00000+0  70283-4 0  9998
2 39091  98.3998 358.9195 0009724 199.1211 160.9612 14.36546417698713
IRIS                    
1 39197U 13033A   26179.81480307  .00000975  00000+0  11782-3 0  9997
2 39197  97.9323  19.0552 0022984 281.8392  78.0245 14.85906926702100
HISAKI (SPRINT-A)       
1 39253U 13049A   26179.98646198  .00000090  00000+0  35549-4 0  9993
2 39253  29.7174 160.0204 0136862 112.5173 248.9948 13.55545620633027
CASSIOPE                
1 39265U 13055A   26179.90113935  .00043532 -41534-6  47075-3 0  9992
2 39265  80.9141  52.4864 0288219  23.0164 338.3681 15.26273988669458
STSAT-3                 
1 39422U 13066G   26179.96485166  .00001248  00000+0  97623-4 0  9991
2 39422  97.6213 149.6637 0009998  10.5769 349.5664 15.02817786685976
